OBJECT_NAME,OBJECT_ID,EPOCH,MEAN_MOTION,ECCENTRICITY,INCLINATION,RA_OF_ASC_NODE,ARG_OF_PERICENTER,MEAN_ANOMALY,EPHEMERIS_TYPE,CLASSIFICATION_TYPE,NORAD_CAT_ID,ELEMENT_SET_NO,REV_AT_EPOCH,BSTAR,MEAN_MOTION_DOT,MEAN_MOTION_DDOT
SUOMI NPP,2011-061A,2026-07-09T19:48:48.701952,14.19521962,.0000578,98.7956,131.5475,252.8200,107.2913,0,U,37849,999,76165,.35072E-4,.3E-6,0
YAOGAN-12,2011-066B,2026-07-09T21:03:52.300224,15.26858803,.001077,97.1139,228.3802,138.4296,221.7764,0,U,37875,999,81550,.10268E-3,.2644E-4,0
BEIDOU-2 M4,2012-018B,2026-07-05T21:56:58.538688,1.86229838,.00118237,55.6406,303.4567,273.7127,86.1743,0,U,38251,999,9629,0,-.61E-6,0
ARIRANG-3 (KOMPSAT-3),2012-025B,2026-07-09T19:40:42.649248,14.62226205,.0006507,98.1182,147.8909,52.7596,307.4198,0,U,38338,999,75465,.63294E-4,.272E-5,0
METOP-B,2012-049A,2026-07-09T18:50:32.537184,14.21445394,.0001064,98.6492,241.8321,289.4373,70.6690,0,U,38771,999,71647,.43625E-4,.52E-6,0
SJ-9A,2012-056A,2026-07-09T19:07:48.861120,14.85522095,.0025486,97.6724,161.9331,179.3907,180.7344,0,U,38860,999,70294,.82124E-4,.66E-5,0
COSMOS 2484 (RODNIK-S 6),2013-001C,2026-07-09T20:17:08.260800,12.42940056,.0025884,82.5003,207.8055,347.4780,12.5654,0,U,39059,999,61137,-.10542E-4,.8E-7,0
SARAL,2013-009A,2026-07-09T19:19:55.644960,14.32894850,.000137,98.5554,17.0866,181.2570,178.8611,0,U,39086,999,69884,.3652E-4,.56E-6,0
STRAND-1,2013-009E,2026-07-09T18:03:45.796032,14.37176789,.0009109,98.3931,10.4326,156.1916,203.9694,0,U,39090,999,70030,.76183E-4,.184E-5,0
BRITE-AUSTRIA,2013-009F,2026-07-08T22:32:48.990624,14.36550763,.00103859,98.4005,8.8378,168.5831,191.5593,0,U,39091,999,70017,.53492733E-4,.114E-5,0
GAOFEN-1,2013-018A,2026-07-09T19:59:25.323072,14.76515541,.0016609,97.9083,262.4398,188.5228,171.5703,0,U,39150,999,71158,.8271E-4,.527E-5,0
NEE-01 PEGASO,2013-018B,2026-07-09T15:21:07.077600,14.93776228,.0013875,98.1250,335.5366,90.6498,269.6310,0,U,39151,999,71405,.12199E-3,.1233E-4,0
PROBA-V,2013-021A,2026-07-09T16:19:56.472672,14.23602758,.0005384,98.3601,168.1783,72.5879,287.5889,0,U,39159,999,68431,.4477E-4,.61E-6,0
ARIRANG-5 (KOMPSAT-5),2013-042A,2026-07-09T20:17:20.245344,15.04519879,.0005522,97.6222,17.2279,71.3580,288.8245,0,U,39227,999,70726,.88852E-4,.1184E-4,0
GONETS-M 5,2013-048A,2026-07-09T19:33:37.967328,12.42892399,.0017149,82.4847,329.2749,160.9712,199.2012,0,U,39249,999,58169,-.21719E-3,-.2E-6,0
GONETS-M 7,2013-048C,2026-07-09T20:35:36.758112,12.42915452,.001793,82.4913,332.1821,162.1735,197.9977,0,U,39251,999,58165,.2335E-3,.42E-6,0
FENGYUN 3C,2013-052A,2026-07-09T20:54:41.232384,14.15760067,.0013904,98.4993,163.7061,322.2109,37.8088,0,U,39260,999,66177,.43095E-4,.43E-6,0
CASSIOPE,2013-055A,2026-07-09T18:43:31.014048,15.27165942,.028418,80.9140,39.2405,346.2510,13.1090,0,U,39265,999,67111,.31455E-3,.29284E-3,-.49914E-6
APRIZESAT 7,2013-066A,2026-07-09T07:00:12.511872,14.91611282,.00368234,97.7719,143.1956,136.2603,224.1544,0,U,39416,999,68452,.10031167E-3,.962E-5,0
ZACUBE-1 (TSHEPISOSAT),2013-066B,2026-07-09T03:16:03.961344,15.01311101,.00436571,97.8016,152.5825,174.6140,185.5562,0,U,39417,999,68402,.12533182E-3,.1581E-4,0
APRIZESAT 8,2013-066K,2026-07-09T06:29:03.747264,14.87690621,.0045007,97.8227,137.4314,211.6319,148.2191,0,U,39425,999,68295,.68770348E-4,.58E-5,0
