SUOMI NPP               
1 37849U 11061A   26190.82556368  .00000030  00000+0  35072-4 0  9994
2 37849  98.7956 131.5475 0000578 252.8200 107.2913 14.19521962761650
YAOGAN-12               
1 37875U 11066B   26190.87768866  .00002644  00000+0  10268-3 0  9993
2 37875  97.1139 228.3802 0010770 138.4296 221.7764 15.26858803815509
BEIDOU-2 M4             
1 38251U 12018B   26186.91456642 -.00000061  00000+0  00000+0 0  9997
2 38251  55.6406 303.4567 0011823 273.7127  86.1743  1.86229838 96291
ARIRANG-3 (KOMPSAT-3)   
1 38338U 12025B   26190.81993807  .00000272  00000+0  63294-4 0  9996
2 38338  98.1182 147.8909 0006507  52.7596 307.4198 14.62226205754655
METOP-B                 
1 38771U 12049A   26190.78509881  .00000052  00000+0  43625-4 0  9996
2 38771  98.6492 241.8321 0001064 289.4373  70.6690 14.21445394716474
SJ-9A                   
1 38860U 12056A   26190.79709330  .00000660  00000+0  82124-4 0  9997
2 38860  97.6724 161.9331 0025486 179.3907 180.7344 14.85522095702947
COSMOS 2484 (RODNIK-S 6)
1 39059U 13001C   26190.84523450  .00000008  00000+0 -10542-4 0  9994
2 39059  82.5003 207.8055 0025884 347.4780  12.5654 12.42940056611377
SARAL                   
1 39086U 13009A   26190.80550515  .00000056  00000+0  36520-4 0  9996
2 39086  98.5554  17.0866 0001370 181.2570 178.8611 14.32894850698848
STRAND-1                
1 39090U 13009E   26190.75261338  .00000184  00000+0  76183-4 0  9998
2 39090  98.3931  10.4326 0009109 156.1916 203.9694 14.37176789700306
BRITE-AUSTRIA           
1 39091U 13009F   26189.93945591  .00000114  00000+0  53493-4 0  9999
2 39091  98.4005   8.8378 0010385 168.5831 191.5593 14.36550763700171
GAOFEN-1                
1 39150U 13018A   26190.83293198  .00000527  00000+0  82710-4 0  9997
2 39150  97.9083 262.4398 0016609 188.5228 171.5703 14.76515541711581
NEE-01 PEGASO           
1 39151U 13018B   26190.63966525  .00001233  00000+0  12199-3 0  9995
2 39151  98.1250 335.5366 0013875  90.6498 269.6310 14.93776228714050
PROBA-V                 
1 39159U 13021A   26190.68051473  .00000061  00000+0  44770-4 0  9998
2 39159  98.3601 168.1783 0005384  72.5879 287.5889 14.23602758684315
ARIRANG-5 (KOMPSAT-5)   
1 39227U 13042A   26190.84537321  .00001184  00000+0  88852-4 0  9992
2 39227  97.6222  17.2279 0005522  71.3580 288.8245 15.04519879707267
GONETS-M 5              
1 39249U 13048A   26190.81502277 -.00000020  00000+0 -21719-3 0  9999
2 39249  82.4847 329.2749 0017149 160.9712 199.2012 12.42892399581698
GONETS-M 7              
1 39251U 13048C   26190.85806433  .00000042  00000+0  23350-3 0  9992
2 39251  82.4913 332.1821 0017930 162.1735 197.9977 12.42915452581653
FENGYUN 3C              
1 39260U 13052A   26190.87131056  .00000043  00000+0  43095-4 0  9991
2 39260  98.4993 163.7061 0013904 322.2109  37.8088 14.15760067661772
CASSIOPE                
1 39265U 13055A   26190.78022007  .00029284 -49914-6  31455-3 0  9993
2 39265  80.9140  39.2405 0284180 346.2510  13.1090 15.27165942671118
APRIZESAT 7             
1 39416U 13066A   26190.29181148  .00000962  00000+0  10031-3 0  9995
2 39416  97.7719 143.1956 0036823 136.2603 224.1544 14.91611282684529
ZACUBE-1 (TSHEPISOSAT)  
1 39417U 13066B   26190.13615696  .00001581  00000+0  12533-3 0  9996
2 39417  97.8016 152.5825 0043657 174.6140 185.5562 15.01311101684029
APRIZESAT 8             
1 39425U 13066K   26190.27018226  .00000580  00000+0  68770-4 0  9999
2 39425  97.8227 137.4314 0045007 211.6319 148.2191 14.87690621682952
